[{"OBJECT_NAME":"PIESAT A","OBJECT_ID":"2023-047A","EPOCH":"2026-03-09T13:45:37.273248","MEAN_MOTION":15.14302818,"ECCENTRICITY":0.0002367,"INCLINATION":97.5034,"RA_OF_ASC_NODE":257.1452,"ARG_OF_PERICENTER":89.923,"MEAN_ANOMALY":270.2273,"EPHEMERIS_TYPE":0,"CLASSIFICATION_TYPE":"U","NORAD_CAT_ID":56153,"ELEMENT_SET_NO":999,"REV_AT_EPOCH":16272,"BSTAR":0.00032318,"MEAN_MOTION_DOT":5.852e-5,"MEAN_MOTION_DDOT":0},{"OBJECT_NAME":"ICEYE-X62","OBJECT_ID":"2025-276CT","EPOCH":"2026-03-09T22:00:01.999584","MEAN_MOTION":15.13749858,"ECCENTRICITY":0.00024067,"INCLINATION":97.4268,"RA_OF_ASC_NODE":144.1131,"ARG_OF_PERICENTER":24.3407,"MEAN_ANOMALY":42.0964,"EPHEMERIS_TYPE":0,"CLASSIFICATION_TYPE":"U","NORAD_CAT_ID":66755,"ELEMENT_SET_NO":999,"REV_AT_EPOCH":582,"BSTAR":-0.0014397534,"MEAN_MOTION_DOT":-0.00025905,"MEAN_MOTION_DDOT":0}]
